{
  "links" : {
    "next" : "https://api.nasa.gov/neo/rest/v1/feed?start_date=1995-07-16&end_date=1995-07-16&detailed=true&api_key=t0TVs3DtDT2H8Oy2Zy8m2eVrNsAVKAexjcZXUckd",
    "prev" : "https://api.nasa.gov/neo/rest/v1/feed?start_date=1995-07-14&end_date=1995-07-14&detailed=true&api_key=t0TVs3DtDT2H8Oy2Zy8m2eVrNsAVKAexjcZXUckd",
    "self" : "https://api.nasa.gov/neo/rest/v1/feed?start_date=1995-07-15&end_date=1995-07-15&detailed=true&api_key=t0TVs3DtDT2H8Oy2Zy8m2eVrNsAVKAexjcZXUckd"
  },
  "element_count" : 4,
  "near_earth_objects" : {
    "1995-07-15" : [ {
      "links" : {
        "self" : "https://api.nasa.gov/neo/rest/v1/neo/3414393?api_key=t0TVs3DtDT2H8Oy2Zy8m2eVrNsAVKAexjcZXUckd"
      },
      "neo_reference_id" : "3414393",
      "name" : "(2008 MN1)",
      "nasa_jpl_url" : "http://ssd.jpl.nasa.gov/sbdb.cgi?sstr=3414393",
      "absolute_magnitude_h" : 20.1,
      "estimated_diameter" : {
        "kilometers" : {
          "estimated_diameter_min" : 0.2538370294,
          "estimated_diameter_max" : 0.5675968529
        },
        "meters" : {
          "estimated_diameter_min" : 253.8370293645,
          "estimated_diameter_max" : 567.5968528656
        },
        "miles" : {
          "estimated_diameter_min" : 0.1577269688,
          "estimated_diameter_max" : 0.3526882241
        },
        "feet" : {
          "estimated_diameter_min" : 832.7986794202,
          "estimated_diameter_max" : 1862.1944587557
        }
      },
      "is_potentially_hazardous_asteroid" : false,
      "close_approach_data" : [ {
        "close_approach_date" : "1995-07-15",
        "epoch_date_close_approach" : 805791600000,
        "relative_velocity" : {
          "kilometers_per_second" : "18.5175254845",
          "kilometers_per_hour" : "66663.0917440337",
          "miles_per_hour" : "41421.8527561747"
        },
        "miss_distance" : {
          "astronomical" : "0.32111022",
          "lunar" : "124.9118728638",
          "kilometers" : "48037404",
          "miles" : "29849060"
        },
        "orbiting_body" : "Earth"
      } ],
      "orbital_data" : {
        "orbit_id" : "28",
        "orbit_determination_date" : "2016-07-19 06:15:41",
        "orbit_uncertainty" : "0",
        "minimum_orbit_intersection" : ".14088",
        "jupiter_tisserand_invariant" : "4.574",
        "epoch_osculation" : "2457600.5",
        "eccentricity" : ".2476966426679784",
        "semi_major_axis" : "1.376451096446346",
        "inclination" : "37.22407108829239",
        "ascending_node_longitude" : "106.1303161194635",
        "orbital_period" : "589.8473138359883",
        "perihelion_distance" : "1.035508781059929",
        "perihelion_argument" : "244.0632687260298",
        "aphelion_distance" : "1.717393411832764",
        "perihelion_time" : "2457658.844275227764",
        "mean_anomaly" : "324.3908879648891",
        "mean_motion" : ".6103274382293802",
        "equinox" : "J2000"
      }
    }, {
      "links" : {
        "self" : "https://api.nasa.gov/neo/rest/v1/neo/3440397?api_key=t0TVs3DtDT2H8Oy2Zy8m2eVrNsAVKAexjcZXUckd"
      },
      "neo_reference_id" : "3440397",
      "name" : "(2008 WQ63)",
      "nasa_jpl_url" : "http://ssd.jpl.nasa.gov/sbdb.cgi?sstr=3440397",
      "absolute_magnitude_h" : 20.1,
      "estimated_diameter" : {
        "kilometers" : {
          "estimated_diameter_min" : 0.2538370294,
          "estimated_diameter_max" : 0.5675968529
        },
        "meters" : {
          "estimated_diameter_min" : 253.8370293645,
          "estimated_diameter_max" : 567.5968528656
        },
        "miles" : {
          "estimated_diameter_min" : 0.1577269688,
          "estimated_diameter_max" : 0.3526882241
        },
        "feet" : {
          "estimated_diameter_min" : 832.7986794202,
          "estimated_diameter_max" : 1862.1944587557
        }
      },
      "is_potentially_hazardous_asteroid" : true,
      "close_approach_data" : [ {
        "close_approach_date" : "1995-07-15",
        "epoch_date_close_approach" : 805791600000,
        "relative_velocity" : {
          "kilometers_per_second" : "31.1285563305",
          "kilometers_per_hour" : "112062.8027896715",
          "miles_per_hour" : "69631.4676556156"
        },
        "miss_distance" : {
          "astronomical" : "0.4797684445",
          "lunar" : "186.6299285889",
          "kilometers" : "71772336",
          "miles" : "44597264"
        },
        "orbiting_body" : "Earth"
      } ],
      "orbital_data" : {
        "orbit_id" : "26",
        "orbit_determination_date" : "2017-04-06 09:02:02",
        "orbit_uncertainty" : "1",
        "minimum_orbit_intersection" : ".00799405",
        "jupiter_tisserand_invariant" : "3.918",
        "epoch_osculation" : "2458000.5",
        "eccentricity" : ".6073127022277187",
        "semi_major_axis" : "1.73386919363144",
        "inclination" : ".9209450537747631",
        "ascending_node_longitude" : "317.3928578023471",
        "orbital_period" : "833.9171826189519",
        "perihelion_distance" : ".6808684083377344",
        "perihelion_argument" : "228.7276848309123",
        "aphelion_distance" : "2.786869978925145",
        "perihelion_time" : "2458218.506292766635",
        "mean_anomaly" : "265.8872187409405",
        "mean_motion" : ".4316975444364929",
        "equinox" : "J2000"
      }
    }, {
      "links" : {
        "self" : "https://api.nasa.gov/neo/rest/v1/neo/2470594?api_key=t0TVs3DtDT2H8Oy2Zy8m2eVrNsAVKAexjcZXUckd"
      },
      "neo_reference_id" : "2470594",
      "name" : "470594 (2008 MN1)",
      "nasa_jpl_url" : "http://ssd.jpl.nasa.gov/sbdb.cgi?sstr=2470594",
      "absolute_magnitude_h" : 20.2,
      "estimated_diameter" : {
        "kilometers" : {
          "estimated_diameter_min" : 0.2424124811,
          "estimated_diameter_max" : 0.5420507863
        },
        "meters" : {
          "estimated_diameter_min" : 242.4124811008,
          "estimated_diameter_max" : 542.0507863358
        },
        "miles" : {
          "estimated_diameter_min" : 0.1506280858,
          "estimated_diameter_max" : 0.3368146392
        },
        "feet" : {
          "estimated_diameter_min" : 795.3165644948,
          "estimated_diameter_max" : 1778.3819018419
        }
      },
      "is_potentially_hazardous_asteroid" : false,
      "close_approach_data" : [ {
        "close_approach_date" : "1995-07-15",
        "epoch_date_close_approach" : 805791600000,
        "relative_velocity" : {
          "kilometers_per_second" : "18.5175194475",
          "kilometers_per_hour" : "66663.0700108924",
          "miles_per_hour" : "41421.8392520459"
        },
        "miss_distance" : {
          "astronomical" : "0.3211118286",
          "lunar" : "124.9124984741",
          "kilometers" : "48037648",
          "miles" : "29849210"
        },
        "orbiting_body" : "Earth"
      } ],
      "orbital_data" : {
        "orbit_id" : "32",
        "orbit_determination_date" : "2017-04-06 09:19:14",
        "orbit_uncertainty" : "0",
        "minimum_orbit_intersection" : ".141147",
        "jupiter_tisserand_invariant" : "4.574",
        "epoch_osculation" : "2458000.5",
        "eccentricity" : ".2476471761427561",
        "semi_major_axis" : "1.376501611527481",
        "inclination" : "37.22279206579987",
        "ascending_node_longitude" : "106.1248590326738",
        "orbital_period" : "589.8797847952184",
        "perihelion_distance" : "1.035614874476747",
        "perihelion_argument" : "244.0608253914646",
        "aphelion_distance" : "1.717388348578214",
        "perihelion_time" : "2458248.696915191497",
        "mean_anomaly" : "208.5269511313089",
        "mean_motion" : ".610293841693485",
        "equinox" : "J2000"
      }
    }, {
      "links" : {
        "self" : "https://api.nasa.gov/neo/rest/v1/neo/3414402?api_key=t0TVs3DtDT2H8Oy2Zy8m2eVrNsAVKAexjcZXUckd"
      },
      "neo_reference_id" : "3414402",
      "name" : "(2008 MU1)",
      "nasa_jpl_url" : "http://ssd.jpl.nasa.gov/sbdb.cgi?sstr=3414402",
      "absolute_magnitude_h" : 19.7,
      "estimated_diameter" : {
        "kilometers" : {
          "estimated_diameter_min" : 0.3051792326,
          "estimated_diameter_max" : 0.6824015094
        },
        "meters" : {
          "estimated_diameter_min" : 305.1792325939,
          "estimated_diameter_max" : 682.4015094011
        },
        "miles" : {
          "estimated_diameter_min" : 0.1896295249,
          "estimated_diameter_max" : 0.4240245083
        },
        "feet" : {
          "estimated_diameter_min" : 1001.2442334633,
          "estimated_diameter_max" : 2238.8501681036
        }
      },
      "is_potentially_hazardous_asteroid" : false,
      "close_approach_data" : [ {
        "close_approach_date" : "1995-07-15",
        "epoch_date_close_approach" : 805791600000,
        "relative_velocity" : {
          "kilometers_per_second" : "26.347867125",
          "kilometers_per_hour" : "94852.3216501195",
          "miles_per_hour" : "58937.5439719868"
        },
        "miss_distance" : {
          "astronomical" : "0.3719103572",
          "lunar" : "144.6731262207",
          "kilometers" : "55637000",
          "miles" : "34571228"
        },
        "orbiting_body" : "Earth"
      } ],
      "orbital_data" : {
        "orbit_id" : "38",
        "orbit_determination_date" : "2017-04-06 09:03:15",
        "orbit_uncertainty" : "1",
        "minimum_orbit_intersection" : ".200346",
        "jupiter_tisserand_invariant" : "3.568",
        "epoch_osculation" : "2458000.5",
        "eccentricity" : ".4364161676008859",
        "semi_major_axis" : "1.895561584856526",
        "inclination" : "40.75589995690742",
        "ascending_node_longitude" : "296.3182956877208",
        "orbital_period" : "953.2466221849488",
        "perihelion_distance" : "1.06830786254198",
        "perihelion_argument" : "56.56054080211472",
        "aphelion_distance" : "2.722815307171073",
        "perihelion_time" : "2457581.929204267344",
        "mean_anomaly" : "158.0760770160067",
        "mean_motion" : ".3776567276733059",
        "equinox" : "J2000"
      }
    } ]
  }
}